{"type": "FeatureCollection", "features": [ {"type": "Feature", "properties": {"norad_id": 37550, "name": "IRIDIUM 33 DEB", "group": "iridium-33-debris", "lat": -8.366659586097004, "lon": 27.29608712385094, "alt_km": 677.4653632619829, "timestamp": "2025-12-03T19:33:07.363151+00:00", "meta": {"OBJECT_NAME": "IRIDIUM 33 DEB", "OBJECT_ID": "1997-051XK", "EPOCH": "2025-12-01T10:17:32.492256", "MEAN_MOTION": 14.66958093, "ECCENTRICITY": 0.00051706, "INCLINATION": 86.3787, "RA_OF_ASC_NODE": 28.8861, "ARG_OF_PERICENTER": 137.4218, "MEAN_ANOMALY": 222.7397, "EPHEMERIS_TYPE": 0, "CLASSIFICATION_TYPE": "U", "NORAD_CAT_ID": 37550, "ELEMENT_SET_NO": 999, "REV_AT_EPOCH": 86167, "BSTAR": 0.0016356222, "MEAN_MOTION_DOT": 9.181e-05, "MEAN_MOTION_DDOT": 0}, "tle": {"line1": "1 37550U 97051XK  25335.42884829  .00009181  00000+0  16356-2 0  9996", "line2": "2 37550  86.3787  28.8861 0005170 137.4218 222.7397 14.66958093861674"}}, "geometry": {"type": "Point", "coordinates": [27.29608712385094, -8.366659586097004]}}, {"type": "Feature", "properties": {"norad_id": 37562, "name": "IRIDIUM 33 DEB", "group": "iridium-33-debris", "lat": -4.205316120299533, "lon": -132.24099043563373, "alt_km": 696.2050310338745, "timestamp": "2025-12-03T19:33:07.363162+00:00", "meta": {"OBJECT_NAME": "IRIDIUM 33 DEB", "OBJECT_ID": "1997-051XX", "EPOCH": "2025-12-02T11:38:58.279200", "MEAN_MOTION": 14.56310782, "ECCENTRICITY": 0.00264774, "INCLINATION": 86.3757, "RA_OF_ASC_NODE": 48.0711, "ARG_OF_PERICENTER": 140.1139, "MEAN_ANOMALY": 279.2058, "EPHEMERIS_TYPE": 0, "CLASSIFICATION_TYPE": "U", "NORAD_CAT_ID": 37562, "ELEMENT_SET_NO": 999, "REV_AT_EPOCH": 86179, "BSTAR": 0.0014715729, "MEAN_MOTION_DOT": 6.569e-05, "MEAN_MOTION_DDOT": 0}, "tle": {"line1": "1 37562U 97051XX  25336.48539675  .00006569  00000+0  14716-2 0  9997", "line2": "2 37562  86.3757  48.0711 0026477 140.1139 279.2058 14.56310782861798"}}, "geometry": {"type": "Point", "coordinates": [-132.24099043563373, -4.205316120299533]}}, {"type": "Feature", "properties": {"norad_id": 37565, "name": "IRIDIUM 33 DEB", "group": "iridium-33-debris", "lat": 57.25795219759674, "lon": -172.23007530198578, "alt_km": 704.9998270626111, "timestamp": "2025-12-03T19:33:07.363172+00:00", "meta": {"OBJECT_NAME": "IRIDIUM 33 DEB", "OBJECT_ID": "1997-051YA", "EPOCH": "2025-12-02T19:49:35.026176", "MEAN_MOTION": 14.51449294, "ECCENTRICITY": 0.00151592, "INCLINATION": 86.3504, "RA_OF_ASC_NODE": 13.8967, "ARG_OF_PERICENTER": 112.8833, "MEAN_ANOMALY": 247.3975, "EPHEMERIS_TYPE": 0, "CLASSIFICATION_TYPE": "U", "NORAD_CAT_ID": 37565, "ELEMENT_SET_NO": 999, "REV_AT_EPOCH": 65693, "BSTAR": 0.00072957053, "MEAN_MOTION_DOT": 2.936e-05, "MEAN_MOTION_DDOT": 0}, "tle": {"line1": "1 37565U 97051YA  25336.82609984  .00002936  00000+0  72957-3 0  9995", "line2": "2 37565  86.3504  13.8967 0015159 112.8833 247.3975 14.51449294656934"}}, "geometry": {"type": "Point", "coordinates": [-172.23007530198578, 57.25795219759674]}}, {"type": "Feature", "properties": {"norad_id": 38017, "name": "IRIDIUM 33 DEB", "group": "iridium-33-debris", "lat": -60.46051950927713, "lon": 163.62193926939764, "alt_km": 801.4585882466499, "timestamp": "2025-12-03T19:33:07.363182+00:00", "meta": {"OBJECT_NAME": "IRIDIUM 33 DEB", "OBJECT_ID": "1997-051YD", "EPOCH": "2025-12-01T06:29:11.103360", "MEAN_MOTION": 14.48304289, "ECCENTRICITY": 0.009214, "INCLINATION": 86.3439, "RA_OF_ASC_NODE": 171.2047, "ARG_OF_PERICENTER": 141.8586, "MEAN_ANOMALY": 218.9187, "EPHEMERIS_TYPE": 0, "CLASSIFICATION_TYPE": "U", "NORAD_CAT_ID": 38017, "ELEMENT_SET_NO": 999, "REV_AT_EPOCH": 61236, "BSTAR": 0.0066574, "MEAN_MOTION_DOT": 0.00026341, "MEAN_MOTION_DDOT": 0}, "tle": {"line1": "1 38017U 97051YD  25335.27026740  .00026341  00000+0  66574-2 0  9992", "line2": "2 38017  86.3439 171.2047 0092140 141.8586 218.9187 14.48304289612362"}}, "geometry": {"type": "Point", "coordinates": [163.62193926939764, -60.46051950927713]}}, {"type": "Feature", "properties": {"norad_id": 38022, "name": "IRIDIUM 33 DEB", "group": "iridium-33-debris", "lat": -38.08288283970294, "lon": 17.421816715973986, "alt_km": 776.1632973945934, "timestamp": "2025-12-03T19:33:07.363192+00:00", "meta": {"OBJECT_NAME": "IRIDIUM 33 DEB", "OBJECT_ID": "1997-051YJ", "EPOCH": "2025-12-03T09:43:50.752128", "MEAN_MOTION": 14.41155819, "ECCENTRICITY": 0.0047052, "INCLINATION": 86.2701, "RA_OF_ASC_NODE": 20.531, "ARG_OF_PERICENTER": 80.0356, "MEAN_ANOMALY": 280.6149, "EPHEMERIS_TYPE": 0, "CLASSIFICATION_TYPE": "U", "NORAD_CAT_ID": 38022, "ELEMENT_SET_NO": 999, "REV_AT_EPOCH": 69059, "BSTAR": 0.001384, "MEAN_MOTION_DOT": 4.54e-05, "MEAN_MOTION_DDOT": 0}, "tle": {"line1": "1 38022U 97051YJ  25337.40544852  .00004540  00000+0  13840-2 0  9999", "line2": "2 38022  86.2701  20.5310 0047052  80.0356 280.6149 14.41155819690590"}}, "geometry": {"type": "Point", "coordinates": [17.421816715973986, -38.08288283970294]}}, {"type": "Feature", "properties": {"norad_id": 38028, "name": "IRIDIUM 33 DEB", "group": "iridium-33-debris", "lat": -52.86291293956169, "lon": -0.7196176214871277, "alt_km": 764.7163523145282, "timestamp": "2025-12-03T19:33:07.363203+00:00", "meta": {"OBJECT_NAME": "IRIDIUM 33 DEB", "OBJECT_ID": "1997-051YQ", "EPOCH": "2025-12-02T08:55:29.085888", "MEAN_MOTION": 14.46151271, "ECCENTRICITY": 0.00294346, "INCLINATION": 86.325, "RA_OF_ASC_NODE": 4.7758, "ARG_OF_PERICENTER": 153.8613, "MEAN_ANOMALY": 206.4083, "EPHEMERIS_TYPE": 0, "CLASSIFICATION_TYPE": "U", "NORAD_CAT_ID": 38028, "ELEMENT_SET_NO": 999, "REV_AT_EPOCH": 65345, "BSTAR": 0.00044678043, "MEAN_MOTION_DOT": 1.624e-05, "MEAN_MOTION_DDOT": 0}, "tle": {"line1": "1 38028U 97051YQ  25336.37186442  .00001624  00000+0  44678-3 0  9991", "line2": "2 38028  86.3250   4.7758 0029434 153.8613 206.4083 14.46151271653455"}}, "geometry": {"type": "Point", "coordinates": [-0.7196176214871277, -52.86291293956169]}}, {"type": "Feature", "properties": {"norad_id": 38228, "name": "IRIDIUM 33 DEB", "group": "iridium-33-debris", "lat": 52.830132227726644, "lon": -132.63832553697017, "alt_km": 796.986019424292, "timestamp": "2025-12-03T19:33:07.363213+00:00", "meta": {"OBJECT_NAME": "IRIDIUM 33 DEB", "OBJECT_ID": "1997-051ZC", "EPOCH": "2025-12-03T12:31:25.156416", "MEAN_MOTION": 14.27243277, "ECCENTRICITY": 0.0063327, "INCLINATION": 86.2954, "RA_OF_ASC_NODE": 52.388, "ARG_OF_PERICENTER": 219.3785, "MEAN_ANOMALY": 204.5522, "EPHEMERIS_TYPE": 0, "CLASSIFICATION_TYPE": "U", "NORAD_CAT_ID": 38228, "ELEMENT_SET_NO": 999, "REV_AT_EPOCH": 84650, "BSTAR": 0.00054665, "MEAN_MOTION_DOT": 1.383e-05, "MEAN_MOTION_DDOT": 0}, "tle": {"line1": "1 38228U 97051ZC  25337.52181894  .00001383  00000+0  54665-3 0  9996", "line2": "2 38228  86.2954  52.3880 0063327 219.3785 204.5522 14.27243277846503"}}, "geometry": {"type": "Point", "coordinates": [-132.63832553697017, 52.830132227726644]}}, {"type": "Feature", "properties": {"norad_id": 38241, "name": "IRIDIUM 33 DEB", "group": "iridium-33-debris", "lat": -64.70370963133774, "lon": -177.64349494083686, "alt_km": 721.1196762021509, "timestamp": "2025-12-03T19:33:07.363223+00:00", "meta": {"OBJECT_NAME": "IRIDIUM 33 DEB", "OBJECT_ID": "1997-051ZR", "EPOCH": "2025-12-01T08:39:05.059872", "MEAN_MOTION": 14.54752437, "ECCENTRICITY": 0.00056988, "INCLINATION": 86.3235, "RA_OF_ASC_NODE": 355.6193, "ARG_OF_PERICENTER": 96.8352, "MEAN_ANOMALY": 263.3504, "EPHEMERIS_TYPE": 0, "CLASSIFICATION_TYPE": "U", "NORAD_CAT_ID": 38241, "ELEMENT_SET_NO": 999, "REV_AT_EPOCH": 60035, "BSTAR": 0.00088099609, "MEAN_MOTION_DOT": 3.793e-05, "MEAN_MOTION_DDOT": 0}, "tle": {"line1": "1 38241U 97051ZR  25335.36047523  .00003793  00000+0  88100-3 0  9999", "line2": "2 38241  86.3235 355.6193 0005698  96.8352 263.3504 14.54752437600359"}}, "geometry": {"type": "Point", "coordinates": [-177.64349494083686, -64.70370963133774]}}, {"type": "Feature", "properties": {"norad_id": 38474, "name": "IRIDIUM 33 DEB", "group": "iridium-33-debris", "lat": 28.101486853306472, "lon": -168.00692848638684, "alt_km": 706.7934333943113, "timestamp": "2025-12-03T19:33:07.363233+00:00", "meta": {"OBJECT_NAME": "IRIDIUM 33 DEB", "OBJECT_ID": "1997-051AAB", "EPOCH": "2025-11-29T08:54:08.657856", "MEAN_MOTION": 14.50603208, "ECCENTRICITY": 0.002717, "INCLINATION": 86.3442, "RA_OF_ASC_NODE": 15.8845, "ARG_OF_PERICENTER": 130.9322, "MEAN_ANOMALY": 229.4241, "EPHEMERIS_TYPE": 0, "CLASSIFICATION_TYPE": "U", "NORAD_CAT_ID": 38474, "ELEMENT_SET_NO": 999, "REV_AT_EPOCH": 65124, "BSTAR": 0.00047302373, "MEAN_MOTION_DOT": 1.884e-05, "MEAN_MOTION_DDOT": 0}, "tle": {"line1": "1 38474U 97051AAB 25333.37093354  .00001884  00000+0  47302-3 0  9997", "line2": "2 38474  86.3442  15.8845 0027170 130.9322 229.4241 14.50603208651244"}}, "geometry": {"type": "Point", "coordinates": [-168.00692848638684, 28.101486853306472]}}, {"type": "Feature", "properties": {"norad_id": 39777, "name": "IRIDIUM 33 DEB", "group": "iridium-33-debris", "lat": 18.17715208581902, "lon": -179.29969977047696, "alt_km": 746.1790850949865, "timestamp": "2025-12-03T19:33:07.363244+00:00", "meta": {"OBJECT_NAME": "IRIDIUM 33 DEB", "OBJECT_ID": "1997-051AAJ", "EPOCH": "2025-12-01T13:02:19.201056", "MEAN_MOTION": 14.56024465, "ECCENTRICITY": 0.00595889, "INCLINATION": 85.9622, "RA_OF_ASC_NODE": 180.4732, "ARG_OF_PERICENTER": 225.0821, "MEAN_ANOMALY": 134.5543, "EPHEMERIS_TYPE": 0, "CLASSIFICATION_TYPE": "U", "NORAD_CAT_ID": 39777, "ELEMENT_SET_NO": 999, "REV_AT_EPOCH": 60022, "BSTAR": 0.0022774227, "MEAN_MOTION_DOT": 0.00010294, "MEAN_MOTION_DDOT": 0}, "tle": {"line1": "1 39777U 97051AAJ 25335.54327779  .00010294  00000+0  22774-2 0  9996", "line2": "2 39777  85.9622 180.4732 0059588 225.0821 134.5543 14.56024465600229"}}, "geometry": {"type": "Point", "coordinates": [-179.29969977047696, 18.17715208581902]}}]}